start=new Date('2022-09-03T00:00:00.000Z').valueOf();
sats=[{"OBJECT_TYPE":"PAYLOAD","GP_ID":"211556896","PERIAPSIS":"546.173","REV_AT_EPOCH":"8218","RA_OF_ASC_NODE":"256.8969","DECAY_DATE":null,"MEAN_ANOMALY":"293.1388","COUNTRY_CODE":"US","CENTER_NAME":"EARTH","TLE_LINE1":"1 47980U 21024D   22245.45691149  .00000515  00000-0  53494-4 0  9991","REF_FRAME":"TEME","MEAN_MOTION":"15.06394290","SITE":"AFETR","EPHEMERIS_TYPE":"0","FILE":"3555279","EPOCH":"2022-09-02T10:57:57.152736","NORAD_CAT_ID":"47980","MEAN_ELEMENT_THEORY":"SGP4","MEAN_MOTION_DOT":"0.00000515","TLE_LINE2":"2 47980  53.0549 256.8969 0001528  66.9762 293.1388 15.06394290 82185","ECCENTRICITY":"0.00015280","CLASSIFICATION_TYPE":"U","MEAN_MOTION_DDOT":"0.0000000000000","ELEMENT_SET_NO":"999","LAUNCH_DATE":"2021-03-24","SEMIMAJOR_AXIS":"6925.366","BSTAR":"0.00005349400000","RCS_SIZE":"LARGE","PERIOD":"95.593","TIME_SYSTEM":"UTC","APOAPSIS":"548.289","ARG_OF_PERICENTER":"66.9762","OBJECT_ID":"2021-024D","OBJECT_NAME":"STARLINK-2312","INCLINATION":"53.0549"},{"BSTAR":"0.00010606000000","SEMIMAJOR_AXIS":"6925.354","LAUNCH_DATE":"2021-03-24","ELEMENT_SET_NO":"999","MEAN_MOTION_DDOT":"0.0000000000000","INCLINATION":"53.0559","OBJECT_ID":"2021-024E","OBJECT_NAME":"STARLINK-2303","ARG_OF_PERICENTER":"86.1406","TIME_SYSTEM":"UTC","APOAPSIS":"548.039","PERIOD":"95.592","RCS_SIZE":"LARGE","MEAN_MOTION":"15.06398163","TLE_LINE1":"1 47981U 21024E   22245.68679817  .00001299  00000-0  10606-3 0  9992","REF_FRAME":"TEME","CENTER_NAME":"EARTH","COUNTRY_CODE":"US","MEAN_ANOMALY":"273.9718","DECAY_DATE":null,"RA_OF_ASC_NODE":"340.7260","REV_AT_EPOCH":"8103","PERIAPSIS":"546.399","OBJECT_TYPE":"PAYLOAD","GP_ID":"211588935","CLASSIFICATION_TYPE":"U","ECCENTRICITY":"0.00011840","TLE_LINE2":"2 47981  53.0559 340.7260 0001184  86.1406 273.9718 15.06398163 81030","MEAN_MOTION_DOT":"0.00001299","MEAN_ELEMENT_THEORY":"SGP4","EPOCH":"2022-09-02T16:28:59.361888","NORAD_CAT_ID":"47981","FILE":"3555599","EPHEMERIS_TYPE":"0","SITE":"AFETR"},{"MEAN_MOTION_DDOT":"0.0000000000000","LAUNCH_DATE":"2021-03-24","ELEMENT_SET_NO":"999","BSTAR":"-0.00000263480000","SEMIMAJOR_AXIS":"6925.362","PERIOD":"95.592","TIME_SYSTEM":"UTC","APOAPSIS":"548.277","RCS_SIZE":"LARGE","ARG_OF_PERICENTER":"64.7795","OBJECT_ID":"2021-024F","OBJECT_NAME":"STARLINK-2317","INCLINATION":"53.0548","OBJECT_TYPE":"PAYLOAD","GP_ID":"211555895","REV_AT_EPOCH":"8192","PERIAPSIS":"546.178","COUNTRY_CODE":"US","DECAY_DATE":null,"RA_OF_ASC_NODE":"271.7089","MEAN_ANOMALY":"295.3351","TLE_LINE1":"1 47982U 21024F   22245.46840946 -.00000321  00000-0 -26348-5 0  9991","REF_FRAME":"TEME","CENTER_NAME":"EARTH","MEAN_MOTION":"15.06395471","EPHEMERIS_TYPE":"0","FILE":"3555279","SITE":"AFETR","MEAN_MOTION_DOT":"-0.00000321","EPOCH":"2022-09-02T11:14:30.577344","MEAN_ELEMENT_THEORY":"SGP4","NORAD_CAT_ID":"47982","ECCENTRICITY":"0.00015150","CLASSIFICATION_TYPE":"U","TLE_LINE2":"2 47982  53.0548 271.7089 0001515  64.7795 295.3351 15.06395471 81920"},{"MEAN_MOTION_DDOT":"0.0000000000000","ELEMENT_SET_NO":"999","LAUNCH_DATE":"2021-03-24","BSTAR":"0.00014139000000","SEMIMAJOR_AXIS":"6925.349","APOAPSIS":"548.160","TIME_SYSTEM":"UTC","PERIOD":"95.592","RCS_SIZE":"LARGE","ARG_OF_PERICENTER":"81.1860","OBJECT_NAME":"STARLINK-2308","OBJECT_ID":"2021-024J","INCLINATION":"53.0543","REV_AT_EPOCH":"8189","PERIAPSIS":"546.268","OBJECT_TYPE":"PAYLOAD","GP_ID":"211587935","COUNTRY_CODE":"US","MEAN_ANOMALY":"278.9283","DECAY_DATE":null,"RA_OF_ASC_NODE":"275.3682","TLE_LINE1":"1 47985U 21024J   22245.80522615  .00001825  00000-0  14139-3 0  9993","REF_FRAME":"TEME","CENTER_NAME":"EARTH","MEAN_MOTION":"15.06399783","FILE":"3555599","EPHEMERIS_TYPE":"0","SITE":"AFETR","MEAN_MOTION_DOT":"0.00001825","NORAD_CAT_ID":"47985","EPOCH":"2022-09-02T19:19:31.539360","MEAN_ELEMENT_THEORY":"SGP4","CLASSIFICATION_TYPE":"U","ECCENTRICITY":"0.00013660","TLE_LINE2":"2 47985  53.0543 275.3682 0001366  81.1860 278.9283 15.06399783 81894"},{"ARG_OF_PERICENTER":"86.2000","RCS_SIZE":"LARGE","TIME_SYSTEM":"UTC","APOAPSIS":"548.266","PERIOD":"95.593","INCLINATION":"53.0532","OBJECT_ID":"2021-024N","OBJECT_NAME":"STARLINK-2305","ELEMENT_SET_NO":"999","LAUNCH_DATE":"2021-03-24","MEAN_MOTION_DDOT":"0.0000000000000","SEMIMAJOR_AXIS":"6925.383","BSTAR":"0.00016186000000","SITE":"AFETR","FILE":"3555279","EPHEMERIS_TYPE":"0","TLE_LINE2":"2 47989  53.0532 252.0697 0001470  86.2000 273.9157 15.06388645 82196","CLASSIFICATION_TYPE":"U","ECCENTRICITY":"0.00014700","EPOCH":"2022-09-02T09:25:43.114368","MEAN_ELEMENT_THEORY":"SGP4","NORAD_CAT_ID":"47989","MEAN_MOTION_DOT":"0.00002129","MEAN_ANOMALY":"273.9157","RA_OF_ASC_NODE":"252.0697","DECAY_DATE":null,"COUNTRY_CODE":"US","PERIAPSIS":"546.230","REV_AT_EPOCH":"8219","GP_ID":"211556396","OBJECT_TYPE":"PAYLOAD","MEAN_MOTION":"15.06388645","CENTER_NAME":"EARTH","REF_FRAME":"TEME","TLE_LINE1":"1 47989U 21024N   22245.39286012  .00002129  00000-0  16186-3 0  9991"},{"REF_FRAME":"TEME","TLE_LINE1":"1 47990U 21024P   22245.41127921  .00000586  00000-0  58221-4 0  9991","CENTER_NAME":"EARTH","MEAN_MOTION":"15.06398793","REV_AT_EPOCH":"8171","PERIAPSIS":"546.081","OBJECT_TYPE":"PAYLOAD","GP_ID":"211563181","COUNTRY_CODE":"US","MEAN_ANOMALY":"293.2451","DECAY_DATE":null,"RA_OF_ASC_NODE":"251.9567","MEAN_MOTION_DOT":"0.00000586","EPOCH":"2022-09-02T09:52:14.523744","MEAN_ELEMENT_THEORY":"SGP4","NORAD_CAT_ID":"47990","CLASSIFICATION_TYPE":"U","ECCENTRICITY":"0.00016410","TLE_LINE2":"2 47990  53.0538 251.9567 0001641  66.8711 293.2451 15.06398793 81715","FILE":"3555410","EPHEMERIS_TYPE":"0","SITE":"AFETR","BSTAR":"0.00005822100000","SEMIMAJOR_AXIS":"6925.352","MEAN_MOTION_DDOT":"0.0000000000000","LAUNCH_DATE":"2021-03-24","ELEMENT_SET_NO":"999","OBJECT_ID":"2021-024P","OBJECT_NAME":"STARLINK-2307","INCLINATION":"53.0538","APOAPSIS":"548.354","TIME_SYSTEM":"UTC","PERIOD":"95.592","RCS_SIZE":"LARGE","ARG_OF_PERICENTER":"66.8711"},{"REF_FRAME":"TEME","TLE_LINE1":"1 47991U 21024Q   22245.29010378 -.00000710  00000-0 -28759-4 0  9999","CENTER_NAME":"EARTH","MEAN_MOTION":"15.06397152","PERIAPSIS":"546.465","REV_AT_EPOCH":"8201","GP_ID":"211555395","OBJECT_TYPE":"PAYLOAD","COUNTRY_CODE":"US","MEAN_ANOMALY":"281.6188","RA_OF_ASC_NODE":"267.5345","DECAY_DATE":null,"MEAN_MOTION_DOT":"-0.00000710","MEAN_ELEMENT_THEORY":"SGP4","EPOCH":"2022-09-02T06:57:44.966592","NORAD_CAT_ID":"47991","CLASSIFICATION_TYPE":"U","ECCENTRICITY":"0.00010930","TLE_LINE2":"2 47991  53.0532 267.5345 0001093  78.4923 281.6188 15.06397152 82012","FILE":"3555279","EPHEMERIS_TYPE":"0","SITE":"AFETR","BSTAR":"-0.00002875900000","SEMIMAJOR_AXIS":"6925.357","MEAN_MOTION_DDOT":"0.0000000000000","ELEMENT_SET_NO":"999","LAUNCH_DATE":"2021-03-24","OBJECT_NAME":"STARLINK-2279","OBJECT_ID":"2021-024Q","INCLINATION":"53.0532","APOAPSIS":"547.979","TIME_SYSTEM":"UTC","PERIOD":"95.592","RCS_SIZE":"LARGE","ARG_OF_PERICENTER":"78.4923"},{"SEMIMAJOR_AXIS":"6925.350","BSTAR":"0.00010208000000","ELEMENT_SET_NO":"999","LAUNCH_DATE":"2021-03-24","MEAN_MOTION_DDOT":"0.0000000000000","INCLINATION":"53.0542","OBJECT_ID":"2021-024R","OBJECT_NAME":"STARLINK-2229","ARG_OF_PERICENTER":"73.2115","RCS_SIZE":"LARGE","PERIOD":"95.592","APOAPSIS":"548.272","TIME_SYSTEM":"UTC","MEAN_MOTION":"15.06399594","CENTER_NAME":"EARTH","TLE_LINE1":"1 47992U 21024R   22245.77527121  .00001239  00000-0  10208-3 0  9996","REF_FRAME":"TEME","RA_OF_ASC_NODE":"260.4254","DECAY_DATE":null,"MEAN_ANOMALY":"286.9041","COUNTRY_CODE":"US","OBJECT_TYPE":"PAYLOAD","GP_ID":"211588435","PERIAPSIS":"546.158","REV_AT_EPOCH":"8211","TLE_LINE2":"2 47992  53.0542 260.4254 0001526  73.2115 286.9041 15.06399594 82111","ECCENTRICITY":"0.00015260","CLASSIFICATION_TYPE":"U","MEAN_ELEMENT_THEORY":"SGP4","NORAD_CAT_ID":"47992","EPOCH":"2022-09-02T18:36:23.432544","MEAN_MOTION_DOT":"0.00001239","SITE":"AFETR","EPHEMERIS_TYPE":"0","FILE":"3555599"},{"GP_ID":"211556897","OBJECT_TYPE":"PAYLOAD","PERIAPSIS":"546.257","REV_AT_EPOCH":"8154","DECAY_DATE":null,"RA_OF_ASC_NODE":"302.1034","MEAN_ANOMALY":"277.8162","COUNTRY_CODE":"US","CENTER_NAME":"EARTH","TLE_LINE1":"1 47993U 21024S   22245.38455137 -.00000017  00000-0  17754-4 0  9999","REF_FRAME":"TEME","MEAN_MOTION":"15.06391867","SITE":"AFETR","EPHEMERIS_TYPE":"0","FILE":"3555279","EPOCH":"2022-09-02T09:13:45.238368","MEAN_ELEMENT_THEORY":"SGP4","NORAD_CAT_ID":"47993","MEAN_MOTION_DOT":"-0.00000017","TLE_LINE2":"2 47993  53.0536 302.1034 0001417  82.2988 277.8162 15.06391867 81546","ECCENTRICITY":"0.00014170","CLASSIFICATION_TYPE":"U","MEAN_MOTION_DDOT":"0.0000000000000","LAUNCH_DATE":"2021-03-24","ELEMENT_SET_NO":"999","SEMIMAJOR_AXIS":"6925.373","BSTAR":"0.00001775400000","RCS_SIZE":"LARGE","PERIOD":"95.593","TIME_SYSTEM":"UTC","APOAPSIS":"548.220","ARG_OF_PERICENTER":"82.2988","OBJECT_NAME":"STARLINK-2273","OBJECT_ID":"2021-024S","INCLINATION":"53.0536"},{"MEAN_MOTION_DDOT":"0.0000000000000","ELEMENT_SET_NO":"999","LAUNCH_DATE":"2021-03-24","BSTAR":"0.00006862800000","SEMIMAJOR_AXIS":"6925.338","TIME_SYSTEM":"UTC","APOAPSIS":"548.037","PERIOD":"95.592","RCS_SIZE":"LARGE","ARG_OF_PERICENTER":"87.9830","OBJECT_ID":"2021-024T","OBJECT_NAME":"STARLINK-2290","INCLINATION":"53.0552","REV_AT_EPOCH":"8132","PERIAPSIS":"546.368","OBJECT_TYPE":"PAYLOAD","GP_ID":"211588936","COUNTRY_CODE":"US","MEAN_ANOMALY":"272.1297","RA_OF_ASC_NODE":"315.5873","DECAY_DATE":null,"REF_FRAME":"TEME","TLE_LINE1":"1 47994U 21024T   22245.72042744  .00000741  00000-0  68628-4 0  9993","CENTER_NAME":"EARTH","MEAN_MOTION":"15.06403591","FILE":"3555599","EPHEMERIS_TYPE":"0","SITE":"AFETR","MEAN_MOTION_DOT":"0.00000741","MEAN_ELEMENT_THEORY":"SGP4","NORAD_CAT_ID":"47994","EPOCH":"2022-09-02T17:17:24.930816","CLASSIFICATION_TYPE":"U","ECCENTRICITY":"0.00012050","TLE_LINE2":"2 47994  53.0552 315.5873 0001205  87.9830 272.1297 15.06403591 81328"}];
